From: horizons@ssd.jpl.nasa.gov (Horizons Ephemeris System)
Subject: [Horizons] SMALL BODY #C(500@10)_T(289P/Blanpain) (1/1)
Date: March 5, 2021 at 3:22:06 PM PST

Automated mail xmit by MAIL_REQUEST, PID= 24865 Fri Mar  5 15:22:06 2021
++++++++++++++++++++++++++++++++ (part 1 of 1)  +++++++++++++++++++++++++++++++
*******************************************************************************
JPL/HORIZONS                    289P/Blanpain              2021-Mar-05 15:22:06
Rec #:90001202 (+COV) Soln.date: 2020-Mar-20_11:59:28    # obs: 301 (2013-2020)

IAU76/J2000 helio. ecliptic osc. elements (au, days, deg., period=Julian yrs):

 EPOCH=  2458679.5 ! 2019-Jul-15.0000000 (TDB)    RMSW= n.a.
  EC= .6851211084947294   QR= .9589096682577553   TP= 2458838.493166626
  OM= 68.92462865910687   W= 9.847265516657052    IN= 5.897394919082268
  A= 3.045328518763871    MA= 330.5129511889054   ADIST= 5.131747369269986
  PER= 5.3144636232372    N= .185461103           ANGMOM= .021866831
  DAN= .96469             DDN= 4.97235            L= 78.72078980000001
  B= 1.0068582            MOID= .0157254          TP= 2019-Dec-20.9931666260

Comet physical (GM= km^3/s^2; RAD= km):
  GM= n.a.                RAD= n.a.
  M1=  22.      M2=  n.a.     k1=  4.5    k2= n.a.     PHCOF= n.a.

COMET comments 
1: soln ref.= JPL#K192/7, data arc: 2013-07-04 to 2020-03-15
2: k1=4.5; radar( 0 delay, 7 Dop.);
*******************************************************************************


*******************************************************************************
Ephemeris / MAIL_REQUEST Fri Mar  5 15:22:06 2021 Pasadena, USA  / Horizons
*******************************************************************************
Target body name: 289P/Blanpain                   {source: JPL#K192/7}
Center body name: Sun (10)                        {source: DE431}
Center-site name: BODY CENTER
*******************************************************************************
Start time      : A.D. 1990-Jan-01 00:00:00.0000 TDB
Stop  time      : A.D. 2020-Dec-31 00:00:00.0000 TDB
Step-size       : 20160 minutes
*******************************************************************************
Center geodetic : 0.00000000,0.00000000,0.0000000 {E-lon(deg),Lat(deg),Alt(km)}
Center cylindric: 0.00000000,0.00000000,0.0000000 {E-lon(deg),Dxy(km),Dz(km)}
Center radii    : 696000.0 x 696000.0 x 696000.0 k{Equator, meridian, pole}    
Small perturbers: Yes                             {source: SB431-N16}
Output units    : AU-D
Output type     : GEOMETRIC cartesian states
Output format   : 3 (position, velocity, LT, range, range-rate)
Reference frame : Ecliptic of J2000.0
*******************************************************************************
Initial IAU76/J2000 heliocentric ecliptic osculating elements (au, days, deg.):
 EPOCH=  2458679.5 ! 2019-Jul-15.0000000 (TDB)    RMSW= n.a.                  
  EC= .6851211084947294   QR= .9589096682577553   TP= 2458838.493166626       
  OM= 68.92462865910687   W= 9.847265516657052    IN= 5.897394919082268       
 Equivalent ICRF heliocentric equatorial cartesian coordinates (au, au/d):
  X= 1.806457266246343E+00  Y=-9.923836828350668E-01  Z=-6.676379654077969E-01
 VX=-1.691548184328044E-03 VY= 1.179852737585390E-02 VZ= 5.825041808322046E-03
Comet physical (GM= km^3/s^2; RAD= km):                                        
  GM= n.a.                RAD= n.a.                                           
  M1=  22.      M2=  n.a.     k1=  4.5    k2= n.a.     PHCOF= n.a.            
*******************************************************************************
           JDTDB,            Calendar Date (TDB),                      X,                      Y,                      Z,                     VX,                     VY,                     VZ,                     LT,                     RG,                     RR,
**************************************************************************************************************************************************************************************************************************************************************************
$$SOE
2453478.500000000, A.D. 2005-Apr-18 00:00:00.0000, -2.619606158928447E+00, -3.281128756891690E+00,  1.343205746815392E-01,  1.556490735538671E-03, -6.497319425377508E-03, -3.897392462270698E-04,  2.426142875126414E-02,  4.200736169289883E+00,  4.091853951294800E-03,
2453492.500000000, A.D. 2005-May-02 00:00:00.0000, -2.596808215734703E+00, -3.370811466184693E+00,  1.288130550359907E-01,  1.699198910606952E-03, -6.314890082107285E-03, -3.969509343717992E-04,  2.458660312278436E-02,  4.257038366401829E+00,  3.951732705875242E-03,
2453506.500000000, A.D. 2005-May-16 00:00:00.0000, -2.572059935581483E+00, -3.457956453063201E+00,  1.232086026851969E-01,  1.835188419783143E-03, -6.134769504897307E-03, -4.035937215381507E-04,  2.490054665516835E-02,  4.311396003996906E+00,  3.814037252671775E-03,
2453520.500000000, A.D. 2005-May-30 00:00:00.0000, -2.545452205456928E+00, -3.542595287946944E+00,  1.175149000398900E-01,  1.964905663882129E-03, -5.956851046813321E-03, -4.097073007089182E-04,  2.520345016478118E-02,  4.363842120904561E+00,  3.678637273427103E-03,
2453534.500000000, A.D. 2005-Jun-13 00:00:00.0000, -2.517069919837237E+00, -3.624758062446061E+00,  1.117390979670243E-01,  2.088762082373511E-03, -5.781027368473583E-03, -4.153278488032252E-04,  2.549549408320174E-02,  4.414407957884232E+00,  3.545403403126430E-03,
2453548.500000000, A.D. 2005-Jun-27 00:00:00.0000, -2.486992508533184E+00, -3.704473279630878E+00,  1.058878769049552E-01,  2.207122723310139E-03, -5.607181562510911E-03, -4.204862238027111E-04,  2.577684827902641E-02,  4.463122926771653E+00,  3.414208492704661E-03,
2453562.500000000, A.D. 2005-Jul-11 00:00:00.0000, -2.455294611064785E+00, -3.781767898863315E+00,  9.996750922921946E-02,  2.320312409873996E-03, -5.435211329782639E-03, -4.252104741941965E-04,  2.604767320026925E-02,  4.510014808279272E+00,  3.284944855471315E-03,
2453576.500000000, A.D. 2005-Jul-25 00:00:00.0000, -2.422046483168647E+00, -3.856667493169387E+00,  9.398388825571283E-02,  2.428632178004488E-03, -5.265018951756732E-03, -4.295265023263722E-04,  2.630812078600907E-02,  4.555109909843089E+00,  3.157508628856094E-03,
2453590.500000000, A.D. 2005-Aug-08 00:00:00.0000, -2.387314350123423E+00, -3.929196279404636E+00,  8.794256302480084E-02,  2.532356842988588E-03, -5.096508850761934E-03, -4.334576303668721E-04,  2.655833474507303E-02,  4.598433113875184E+00,  3.031800629310617E-03,
2453604.500000000, A.D. 2005-Aug-22 00:00:00.0000, -2.351160761226208E+00, -3.999377167662711E+00,  8.184877165227783E-02,  2.631737469667000E-03, -4.929590484194757E-03, -4.370250702449613E-04,  2.679845103529361E-02,  4.640007960744528E+00,  2.907728586857939E-03,
2453618.500000000, A.D. 2005-Sep-05 00:00:00.0000, -2.313644868052913E+00, -4.067231845077004E+00,  7.570746465822704E-02,  2.727010607550400E-03, -4.764178258192191E-03, -4.402487878897560E-04,  2.702859837207781E-02,  4.679856736832982E+00,  2.785203488799259E-03,
2453632.500000000, A.D. 2005-Sep-19 00:00:00.0000, -2.274822609431737E+00, -4.132780736074891E+00,  6.952332940289291E-02,  2.818394141791364E-03, -4.600176261441263E-03, -4.431459113095586E-04,  2.724889794224441E-02,  4.718000424987772E+00,  2.664129505809353E-03,
2453646.500000000, A.D. 2005-Oct-03 00:00:00.0000, -2.234747101285314E+00, -4.196042957201414E+00,  6.330083321140792E-02,  2.906077019320448E-03, -4.437497932993081E-03, -4.457314369132010E-04,  2.745946372463995E-02,  4.754458760034412E+00,  2.544426230938751E-03,
2453660.500000000, A.D. 2005-Oct-17 00:00:00.0000, -2.193468878190563E+00, -4.257036484715112E+00,  5.704423490018334E-02,  2.990239742561246E-03, -4.276063826901650E-03, -4.480199715482196E-04,  2.766040348062255E-02,  4.789250400273670E+00,  2.426017430889247E-03,
2453674.500000000, A.D. 2005-Oct-31 00:00:00.0000, -2.151036028640970E+00, -4.315778176736344E+00,  5.075759781441715E-02,  3.071050548589345E-03, -4.115793847882115E-03, -4.500247915073148E-04,  2.785181878640842E-02,  4.822392933082194E+00,  2.308826939233245E-03,
2453688.500000000, A.D. 2005-Nov-14 00:00:00.0000, -2.107494381110765E+00, -4.372283777732064E+00,  4.444480836475335E-02,  3.148664213426609E-03, -3.956609462688879E-03, -4.517579556196480E-04,  2.803380516475440E-02,  4.853902897712622E+00,  2.192781594371324E-03,
2453702.500000000, A.D. 2005-Nov-28 00:00:00.0000, -2.062887669950475E+00, -4.426567960776282E+00,  3.810958906655878E-02,  3.223226821743056E-03, -3.798436014542865E-03, -4.532309694074894E-04,  2.820645239156283E-02,  4.883795838380594E+00,  2.077811641769050E-03,
2453716.500000000, A.D. 2005-Dec-12 00:00:00.0000, -2.017257605964826E+00, -4.478644312304813E+00,  3.175550705989280E-02,  3.294878767548331E-03, -3.641189600870775E-03, -4.544540176150865E-04,  2.836984430578585E-02,  4.912086271350679E+00,  1.963838151600126E-03,
2453730.500000000, A.D. 2005-Dec-26 00:00:00.0000, -1.970644113210293E+00, -4.528525200940668E+00,  2.538600702438321E-02,  3.363734665990810E-03, -3.484785967781238E-03, -4.554348646171845E-04,  2.852405844044898E-02,  4.938787621050103E+00,  1.850789340568917E-03,
2453744.500000000, A.D. 2006-Jan-09 00:00:00.0000, -1.923085579969176E+00, -4.576221909345112E+00,  1.900442377535887E-02,  3.429902142904914E-03, -3.329151539060705E-03, -4.561814806160581E-04,  2.866916704131444E-02,  4.963912396444829E+00,  1.738602679785145E-03,
2453758.500000000, A.D. 2006-Jan-23 00:00:00.0000, -1.874618927266240E+00, -4.621744686955710E+00,  1.261398469420951E-02,  3.493481976052644E-03, -3.174212066927638E-03, -4.567011103127667E-04,  2.880523725800132E-02,  4.987472224130980E+00,  1.627214976985768E-03,
